{"type": "FeatureCollection", "features": [ {"type": "Feature", "properties": {"norad_id": 34635, "name": "COSMOS 2251 DEB", "group": "cosmos-2251-debris", "lat": 11.156484150610988, "lon": 53.33004146713512, "alt_km": 671.7868611184549, "timestamp": "2025-12-23T09:49:07.477809+00:00", "meta": {"OBJECT_NAME": "COSMOS 2251 DEB", "OBJECT_ID": "1993-036XG", "EPOCH": "2025-12-22T21:29:16.160352", "MEAN_MOTION": 14.68384171, "ECCENTRICITY": 0.00277462, "INCLINATION": 74.0452, "RA_OF_ASC_NODE": 51.0883, "ARG_OF_PERICENTER": 116.2833, "MEAN_ANOMALY": 60.8888, "EPHEMERIS_TYPE": 0, "CLASSIFICATION_TYPE": "U", "NORAD_CAT_ID": 34635, "ELEMENT_SET_NO": 999, "REV_AT_EPOCH": 73368, "BSTAR": 0.0011261107, "MEAN_MOTION_DOT": 6.523e-05, "MEAN_MOTION_DDOT": 0}, "tle": {"line1": "1 34635U 93036XG  25356.89532593  .00006523  00000+0  11261-2 0  9995", "line2": "2 34635  74.0452  51.0883 0027746 116.2833  60.8888 14.68384171733688"}}, "geometry": {"type": "Point", "coordinates": [53.33004146713512, 11.156484150610988]}}, {"type": "Feature", "properties": {"norad_id": 34637, "name": "COSMOS 2251 DEB", "group": "cosmos-2251-debris", "lat": -63.365813250989206, "lon": -64.42177262315298, "alt_km": 705.2510386980875, "timestamp": "2025-12-23T09:49:07.477819+00:00", "meta": {"OBJECT_NAME": "COSMOS 2251 DEB", "OBJECT_ID": "1993-036XJ", "EPOCH": "2025-12-22T06:39:01.562688", "MEAN_MOTION": 14.60173978, "ECCENTRICITY": 0.00491154, "INCLINATION": 74.0499, "RA_OF_ASC_NODE": 82.9677, "ARG_OF_PERICENTER": 150.8636, "MEAN_ANOMALY": 268.7882, "EPHEMERIS_TYPE": 0, "CLASSIFICATION_TYPE": "U", "NORAD_CAT_ID": 34637, "ELEMENT_SET_NO": 999, "REV_AT_EPOCH": 88666, "BSTAR": 0.0008534586, "MEAN_MOTION_DOT": 4.154e-05, "MEAN_MOTION_DDOT": 0}, "tle": {"line1": "1 34637U 93036XJ  25356.27710142  .00004154  00000+0  85346-3 0  9991", "line2": "2 34637  74.0499  82.9677 0049115 150.8636 268.7882 14.60173978886667"}}, "geometry": {"type": "Point", "coordinates": [-64.42177262315298, -63.365813250989206]}}, {"type": "Feature", "properties": {"norad_id": 34641, "name": "COSMOS 2251 DEB", "group": "cosmos-2251-debris", "lat": -66.07074267975828, "lon": 20.500631040552467, "alt_km": 716.3410315545088, "timestamp": "2025-12-23T09:49:07.477829+00:00", "meta": {"OBJECT_NAME": "COSMOS 2251 DEB", "OBJECT_ID": "1993-036XN", "EPOCH": "2025-12-21T22:35:07.787904", "MEAN_MOTION": 14.52063292, "ECCENTRICITY": 0.00190151, "INCLINATION": 73.8389, "RA_OF_ASC_NODE": 64.103, "ARG_OF_PERICENTER": 336.8289, "MEAN_ANOMALY": 200.1727, "EPHEMERIS_TYPE": 0, "CLASSIFICATION_TYPE": "U", "NORAD_CAT_ID": 34641, "ELEMENT_SET_NO": 999, "REV_AT_EPOCH": 88389, "BSTAR": 0.00076877833, "MEAN_MOTION_DOT": 3.089e-05, "MEAN_MOTION_DDOT": 0}, "tle": {"line1": "1 34641U 93036XN  25355.94106236  .00003089  00000+0  76878-3 0  9998", "line2": "2 34641  73.8389  64.1030 0019015 336.8289 200.1727 14.52063292883896"}}, "geometry": {"type": "Point", "coordinates": [20.500631040552467, -66.07074267975828]}}, {"type": "Feature", "properties": {"norad_id": 34642, "name": "COSMOS 2251 DEB", "group": "cosmos-2251-debris", "lat": 41.8389090249178, "lon": 126.4394367622363, "alt_km": 743.3388740983419, "timestamp": "2025-12-23T09:49:07.477840+00:00", "meta": {"OBJECT_NAME": "COSMOS 2251 DEB", "OBJECT_ID": "1993-036XP", "EPOCH": "2025-12-22T08:08:38.414400", "MEAN_MOTION": 13.98998636, "ECCENTRICITY": 0.02065608, "INCLINATION": 74.0044, "RA_OF_ASC_NODE": 323.173, "ARG_OF_PERICENTER": 140.7375, "MEAN_ANOMALY": 9.5968, "EPHEMERIS_TYPE": 0, "CLASSIFICATION_TYPE": "U", "NORAD_CAT_ID": 34642, "ELEMENT_SET_NO": 999, "REV_AT_EPOCH": 85427, "BSTAR": 0.00076268319, "MEAN_MOTION_DOT": 1.301e-05, "MEAN_MOTION_DDOT": 0}, "tle": {"line1": "1 34642U 93036XP  25356.33933350  .00001301  00000+0  76268-3 0  9996", "line2": "2 34642  74.0044 323.1730 0206560 140.7375   9.5968 13.98998636854270"}}, "geometry": {"type": "Point", "coordinates": [126.4394367622363, 41.8389090249178]}}, {"type": "Feature", "properties": {"norad_id": 34671, "name": "COSMOS 2251 DEB", "group": "cosmos-2251-debris", "lat": -62.17401694883292, "lon": -33.438191320167306, "alt_km": 672.5292951708116, "timestamp": "2025-12-23T09:49:07.477850+00:00", "meta": {"OBJECT_NAME": "COSMOS 2251 DEB", "OBJECT_ID": "1993-036XR", "EPOCH": "2025-12-22T02:23:20.292288", "MEAN_MOTION": 14.67083344, "ECCENTRICITY": 0.00107529, "INCLINATION": 74.0273, "RA_OF_ASC_NODE": 116.2253, "ARG_OF_PERICENTER": 197.1927, "MEAN_ANOMALY": 335.865, "EPHEMERIS_TYPE": 0, "CLASSIFICATION_TYPE": "U", "NORAD_CAT_ID": 34671, "ELEMENT_SET_NO": 999, "REV_AT_EPOCH": 88434, "BSTAR": 0.0016108198, "MEAN_MOTION_DOT": 9.033e-05, "MEAN_MOTION_DDOT": 0}, "tle": {"line1": "1 34671U 93036XR  25356.09954042  .00009033  00000+0  16108-2 0  9998", "line2": "2 34671  74.0273 116.2253 0010752 197.1927 335.8650 14.67083344884344"}}, "geometry": {"type": "Point", "coordinates": [-33.438191320167306, -62.17401694883292]}}, {"type": "Feature", "properties": {"norad_id": 34672, "name": "COSMOS 2251 DEB", "group": "cosmos-2251-debris", "lat": -27.419061128597807, "lon": -82.55167539382535, "alt_km": 759.9915318536696, "timestamp": "2025-12-23T09:49:07.477860+00:00", "meta": {"OBJECT_NAME": "COSMOS 2251 DEB", "OBJECT_ID": "1993-036XS", "EPOCH": "2025-12-18T13:28:46.255872", "MEAN_MOTION": 14.36417673, "ECCENTRICITY": 0.00241418, "INCLINATION": 74.0338, "RA_OF_ASC_NODE": 294.8922, "ARG_OF_PERICENTER": 5.7391, "MEAN_ANOMALY": 109.133, "EPHEMERIS_TYPE": 0, "CLASSIFICATION_TYPE": "U", "NORAD_CAT_ID": 34672, "ELEMENT_SET_NO": 999, "REV_AT_EPOCH": 65261, "BSTAR": 0.00020838077, "MEAN_MOTION_DOT": 5.86e-06, "MEAN_MOTION_DDOT": 0}, "tle": {"line1": "1 34672U 93036XS  25352.56164648  .00000586  00000+0  20838-3 0  9992", "line2": "2 34672  74.0338 294.8922 0024141   5.7391 109.1330 14.36417673652611"}}, "geometry": {"type": "Point", "coordinates": [-82.55167539382535, -27.419061128597807]}}, {"type": "Feature", "properties": {"norad_id": 34678, "name": "COSMOS 2251 DEB", "group": "cosmos-2251-debris", "lat": -74.01769647013339, "lon": -101.60549065922244, "alt_km": 807.7247748820173, "timestamp": "2025-12-23T09:49:07.477871+00:00", "meta": {"OBJECT_NAME": "COSMOS 2251 DEB", "OBJECT_ID": "1993-036XY", "EPOCH": "2025-12-20T18:41:52.747872", "MEAN_MOTION": 14.30066309, "ECCENTRICITY": 0.00246589, "INCLINATION": 74.0376, "RA_OF_ASC_NODE": 351.0764, "ARG_OF_PERICENTER": 37.6613, "MEAN_ANOMALY": 18.542, "EPHEMERIS_TYPE": 0, "CLASSIFICATION_TYPE": "U", "NORAD_CAT_ID": 34678, "ELEMENT_SET_NO": 999, "REV_AT_EPOCH": 87494, "BSTAR": 2.2824328e-05, "MEAN_MOTION_DOT": 3.3e-07, "MEAN_MOTION_DDOT": 0}, "tle": {"line1": "1 34678U 93036XY  25354.77908273  .00000033  00000+0  22824-4 0  9998", "line2": "2 34678  74.0376 351.0764 0024658  37.6613  18.5420 14.30066309874948"}}, "geometry": {"type": "Point", "coordinates": [-101.60549065922244, -74.01769647013339]}}, {"type": "Feature", "properties": {"norad_id": 34680, "name": "COSMOS 2251 DEB", "group": "cosmos-2251-debris", "lat": -66.44876875158698, "lon": 68.46522584850024, "alt_km": 696.7065086846378, "timestamp": "2025-12-23T09:49:07.477881+00:00", "meta": {"OBJECT_NAME": "COSMOS 2251 DEB", "OBJECT_ID": "1993-036YA", "EPOCH": "2025-12-22T07:59:41.815968", "MEAN_MOTION": 14.60717323, "ECCENTRICITY": 0.00064091, "INCLINATION": 74.0448, "RA_OF_ASC_NODE": 111.5411, "ARG_OF_PERICENTER": 212.6495, "MEAN_ANOMALY": 178.9794, "EPHEMERIS_TYPE": 0, "CLASSIFICATION_TYPE": "U", "NORAD_CAT_ID": 34680, "ELEMENT_SET_NO": 999, "REV_AT_EPOCH": 88468, "BSTAR": 0.0011221069, "MEAN_MOTION_DOT": 5.446e-05, "MEAN_MOTION_DDOT": 0}, "tle": {"line1": "1 34680U 93036YA  25356.33312287  .00005446  00000+0  11221-2 0  9999", "line2": "2 34680  74.0448 111.5411 0006409 212.6495 178.9794 14.60717323884685"}}, "geometry": {"type": "Point", "coordinates": [68.46522584850024, -66.44876875158698]}}, {"type": "Feature", "properties": {"norad_id": 34681, "name": "COSMOS 2251 DEB", "group": "cosmos-2251-debris", "lat": -51.71220820572549, "lon": -111.91747435464698, "alt_km": 608.0974188189211, "timestamp": "2025-12-23T09:49:07.477891+00:00", "meta": {"OBJECT_NAME": "COSMOS 2251 DEB", "OBJECT_ID": "1993-036YB", "EPOCH": "2025-12-22T19:44:57.837696", "MEAN_MOTION": 14.83433689, "ECCENTRICITY": 0.00257012, "INCLINATION": 74.0629, "RA_OF_ASC_NODE": 270.463, "ARG_OF_PERICENTER": 326.0128, "MEAN_ANOMALY": 90.1019, "EPHEMERIS_TYPE": 0, "CLASSIFICATION_TYPE": "U", "NORAD_CAT_ID": 34681, "ELEMENT_SET_NO": 999, "REV_AT_EPOCH": 89420, "BSTAR": 0.001403613, "MEAN_MOTION_DOT": 0.0001158, "MEAN_MOTION_DDOT": 0}, "tle": {"line1": "1 34681U 93036YB  25356.82289164  .00011580  00000+0  14036-2 0  9994", "line2": "2 34681  74.0629 270.4630 0025701 326.0128  90.1019 14.83433689894203"}}, "geometry": {"type": "Point", "coordinates": [-111.91747435464698, -51.71220820572549]}}, {"type": "Feature", "properties": {"norad_id": 34682, "name": "COSMOS 2251 DEB", "group": "cosmos-2251-debris", "lat": -22.175211372721943, "lon": -110.63199380387941, "alt_km": 689.0384695872153, "timestamp": "2025-12-23T09:49:07.477901+00:00", "meta": {"OBJECT_NAME": "COSMOS 2251 DEB", "OBJECT_ID": "1993-036YC", "EPOCH": "2025-12-21T16:28:09.636096", "MEAN_MOTION": 14.58951234, "ECCENTRICITY": 0.00178881, "INCLINATION": 74.0396, "RA_OF_ASC_NODE": 65.9494, "ARG_OF_PERICENTER": 198.1652, "MEAN_ANOMALY": 319.486, "EPHEMERIS_TYPE": 0, "CLASSIFICATION_TYPE": "U", "NORAD_CAT_ID": 34682, "ELEMENT_SET_NO": 999, "REV_AT_EPOCH": 88816, "BSTAR": 0.00053543832, "MEAN_MOTION_DOT": 2.488e-05, "MEAN_MOTION_DDOT": 0}, "tle": {"line1": "1 34682U 93036YC  25355.68622264  .00002488  00000+0  53544-3 0  9995", "line2": "2 34682  74.0396  65.9494 0017888 198.1652 319.4860 14.58951234888169"}}, "geometry": {"type": "Point", "coordinates": [-110.63199380387941, -22.175211372721943]}}]}